{
  "type": "FeatureCollection",
  "features": [
    {
      "type": "Feature",
      "properties": {
        "norad_id": 31307,
        "name": "GALAXY 17 (G-17)",
        "group": "intelsat",
        "lat": 1.7655480492589377,
        "lon": -143.28326854766422,
        "alt_km": 35762.96110054788,
        "timestamp": "2025-12-09T14:52:25.833543+00:00",
        "meta_object_name": "GALAXY 17 (G-17)",
        "meta_object_id": "2007-016B",
        "meta_epoch": "2025-12-09T07:09:50.027616",
        "meta_mean_motion": 1.0027259,
        "meta_eccentricity": 0.00060721,
        "meta_inclination": 2.4914,
        "meta_ra_of_asc_node": 82.3215,
        "meta_arg_of_pericenter": 162.245,
        "meta_mean_anomaly": 216.1887,
        "meta_ephemeris_type": 0,
        "meta_classification_type": "U",
        "meta_norad_cat_id": 31307,
        "meta_element_set_no": 999,
        "meta_rev_at_epoch": 6790,
        "meta_bstar": 0,
        "meta_mean_motion_dot": -2.05e-06,
        "meta_mean_motion_ddot": 0,
        "tle_line1": "1 31307U 07016B   25343.29849569 -.00000205  00000+0  00000+0 0  9993",
        "tle_line2": "2 31307   2.4914  82.3215 0006072 162.2450 216.1887  1.00272590 67903"
      },
      "geometry": {
        "type": "Point",
        "coordinates": [
          -143.28326854766422,
          1.7655480492589377
        ]
      }
    },
    {
      "type": "Feature",
      "properties": {
        "norad_id": 31862,
        "name": "DIRECTV 10",
        "group": "intelsat",
        "lat": 0.00216495421298939,
        "lon": -161.06886215838915,
        "alt_km": 35784.33891888831,
        "timestamp": "2025-12-09T14:52:25.833555+00:00",
        "meta_object_name": "DIRECTV 10",
        "meta_object_id": "2007-032A",
        "meta_epoch": "2025-12-08T14:49:37.716960",
        "meta_mean_motion": 1.00272413,
        "meta_eccentricity": 4.123e-05,
        "meta_inclination": 0.0164,
        "meta_ra_of_asc_node": 163.1982,
        "meta_arg_of_pericenter": 60.4028,
        "meta_mean_anomaly": 333.6449,
        "meta_ephemeris_type": 0,
        "meta_classification_type": "U",
        "meta_norad_cat_id": 31862,
        "meta_element_set_no": 999,
        "meta_rev_at_epoch": 4368,
        "meta_bstar": 0,
        "meta_mean_motion_dot": -1.01e-06,
        "meta_mean_motion_ddot": 0,
        "tle_line1": "1 31862U 07032A   25342.61779765 -.00000101  00000+0  00000+0 0  9997",
        "tle_line2": "2 31862   0.0164 163.1982 0000412  60.4028 333.6449  1.00272413 43683"
      },
      "geometry": {
        "type": "Point",
        "coordinates": [
          -161.06886215838915,
          0.00216495421298939
        ]
      }
    },
    {
      "type": "Feature",
      "properties": {
        "norad_id": 32253,
        "name": "INTELSAT 11 (IS-11)",
        "group": "intelsat",
        "lat": 3.020807931611315,
        "lon": -178.94372123714348,
        "alt_km": 36115.5834400494,
        "timestamp": "2025-12-09T14:52:25.833567+00:00",
        "meta_object_name": "INTELSAT 11 (IS-11)",
        "meta_object_id": "2007-044B",
        "meta_epoch": "2025-12-09T07:22:39.919872",
        "meta_mean_motion": 0.99047805,
        "meta_eccentricity": 0.00091161,
        "meta_inclination": 3.0714,
        "meta_ra_of_asc_node": 81.0127,
        "meta_arg_of_pericenter": 164.4421,
        "meta_mean_anomaly": 184.3079,
        "meta_ephemeris_type": 0,
        "meta_classification_type": "U",
        "meta_norad_cat_id": 32253,
        "meta_element_set_no": 999,
        "meta_rev_at_epoch": 6656,
        "meta_bstar": 0,
        "meta_mean_motion_dot": 7.2e-07,
        "meta_mean_motion_ddot": 0,
        "tle_line1": "1 32253U 07044B   25343.30740648  .00000072  00000+0  00000+0 0  9996",
        "tle_line2": "2 32253   3.0714  81.0127 0009116 164.4421 184.3079  0.99047805 66567"
      },
      "geometry": {
        "type": "Point",
        "coordinates": [
          -178.94372123714348,
          3.020807931611315
        ]
      }
    },
    {
      "type": "Feature",
      "properties": {
        "norad_id": 32388,
        "name": "HORIZONS-2",
        "group": "intelsat",
        "lat": 1.1967968528305968,
        "lon": -132.08788892230226,
        "alt_km": 35770.44848051757,
        "timestamp": "2025-12-09T14:52:25.833580+00:00",
        "meta_object_name": "HORIZONS-2",
        "meta_object_id": "2007-063B",
        "meta_epoch": "2025-12-09T06:15:21.405024",
        "meta_mean_motion": 1.00270552,
        "meta_eccentricity": 0.00050311,
        "meta_inclination": 2.1125,
        "meta_ra_of_asc_node": 82.9957,
        "meta_arg_of_pericenter": 186.8656,
        "meta_mean_anomaly": 188.4505,
        "meta_ephemeris_type": 0,
        "meta_classification_type": "U",
        "meta_norad_cat_id": 32388,
        "meta_element_set_no": 999,
        "meta_rev_at_epoch": 6591,
        "meta_bstar": 0,
        "meta_mean_motion_dot": -2.51e-06,
        "meta_mean_motion_ddot": 0,
        "tle_line1": "1 32388U 07063B   25343.26066441 -.00000251  00000+0  00000+0 0  9993",
        "tle_line2": "2 32388   2.1125  82.9957 0005031 186.8656 188.4505  1.00270552 65910"
      },
      "geometry": {
        "type": "Point",
        "coordinates": [
          -132.08788892230226,
          1.1967968528305968
        ]
      }
    },
    {
      "type": "Feature",
      "properties": {
        "norad_id": 32729,
        "name": "DIRECTV 11",
        "group": "intelsat",
        "lat": -0.004913647744623942,
        "lon": -157.4751134309545,
        "alt_km": 35783.58578930011,
        "timestamp": "2025-12-09T14:52:25.833606+00:00",
        "meta_object_name": "DIRECTV 11",
        "meta_object_id": "2008-013A",
        "meta_epoch": "2025-12-08T14:50:30.133248",
        "meta_mean_motion": 1.00272882,
        "meta_eccentricity": 5.266e-05,
        "meta_inclination": 0.0228,
        "meta_ra_of_asc_node": 202.5194,
        "meta_arg_of_pericenter": 2.0786,
        "meta_mean_anomaly": 356.4573,
        "meta_ephemeris_type": 0,
        "meta_classification_type": "U",
        "meta_norad_cat_id": 32729,
        "meta_element_set_no": 999,
        "meta_rev_at_epoch": 4368,
        "meta_bstar": 0,
        "meta_mean_motion_dot": -1.24e-06,
        "meta_mean_motion_ddot": 0,
        "tle_line1": "1 32729U 08013A   25342.61840432 -.00000124  00000+0  00000+0 0  9995",
        "tle_line2": "2 32729   0.0228 202.5194 0000526   2.0786 356.4573  1.00272882 43680"
      },
      "geometry": {
        "type": "Point",
        "coordinates": [
          -157.4751134309545,
          -0.004913647744623942
        ]
      }
    },
    {
      "type": "Feature",
      "properties": {
        "norad_id": 32951,
        "name": "GALAXY 18 (G-18)",
        "group": "intelsat",
        "lat": -0.01781938098296834,
        "lon": 178.66744127015437,
        "alt_km": 35784.03082153325,
        "timestamp": "2025-12-09T14:52:25.833630+00:00",
        "meta_object_name": "GALAXY 18 (G-18)",
        "meta_object_id": "2008-024A",
        "meta_epoch": "2025-12-09T06:48:26.885664",
        "meta_mean_motion": 1.0027251,
        "meta_eccentricity": 0.00031805,
        "meta_inclination": 0.0128,
        "meta_ra_of_asc_node": 293.8067,
        "meta_arg_of_pericenter": 327.0641,
        "meta_mean_anomaly": 156.5084,
        "meta_ephemeris_type": 0,
        "meta_classification_type": "U",
        "meta_norad_cat_id": 32951,
        "meta_element_set_no": 999,
        "meta_rev_at_epoch": 4394,
        "meta_bstar": 0,
        "meta_mean_motion_dot": 2.7e-07,
        "meta_mean_motion_ddot": 0,
        "tle_line1": "1 32951U 08024A   25343.28364451  .00000027  00000+0  00000+0 0  9991",
        "tle_line2": "2 32951   0.0128 293.8067 0003180 327.0641 156.5084  1.00272510 43940"
      },
      "geometry": {
        "type": "Point",
        "coordinates": [
          178.66744127015437,
          -0.01781938098296834
        ]
      }
    },
    {
      "type": "Feature",
      "properties": {
        "norad_id": 33153,
        "name": "INTELSAT 25 (IS-25)",
        "group": "intelsat",
        "lat": -0.31135914141776566,
        "lon": -89.78491066736908,
        "alt_km": 35763.71694953388,
        "timestamp": "2025-12-09T14:52:25.833645+00:00",
        "meta_object_name": "INTELSAT 25 (IS-25)",
        "meta_object_id": "2008-034A",
        "meta_epoch": "2025-12-09T04:51:44.145792",
        "meta_mean_motion": 1.00270345,
        "meta_eccentricity": 0.00054049,
        "meta_inclination": 2.2187,
        "meta_ra_of_asc_node": 82.6859,
        "meta_arg_of_pericenter": 184.3972,
        "meta_mean_anomaly": 212.5515,
        "meta_ephemeris_type": 0,
        "meta_classification_type": "U",
        "meta_norad_cat_id": 33153,
        "meta_element_set_no": 999,
        "meta_rev_at_epoch": 6379,
        "meta_bstar": 0,
        "meta_mean_motion_dot": -2.22e-06,
        "meta_mean_motion_ddot": 0,
        "tle_line1": "1 33153U 08034A   25343.20259428 -.00000222  00000+0  00000+0 0  9994",
        "tle_line2": "2 33153   2.2187  82.6859 0005404 184.3972 212.5515  1.00270345 63790"
      },
      "geometry": {
        "type": "Point",
        "coordinates": [
          -89.78491066736908,
          -0.31135914141776566
        ]
      }
    }
  ]
}